storeNo,name,storeNoName,latitude,longitude,county,physicalStore,municipality,countryRegion,postalCity,postalCode
361,EP BLOMSTERDALEN - utgått,361 EP BLOMSTERDALEN - utgått,"","","",true,"","","",""
362,EP EVJE,362 EP EVJE,58.58013,7.78815,Agder,true,EVJE OG HORNNES,Sørlandet,EVJE,4735
363,EP HOV,363 EP HOV,60.69716,10.35335,Innlandet,true,SØNDRE LAND,Østlandet,HOV,2860
364,EP INDRE ARNA,364 EP INDRE ARNA,60.43358,5.46294,Vestland,true,BERGEN,Vestlandet,INDRE ARNA,5260
385,EP KONNERUD,385 EP KONNERUD,59.71786,10.1489,Buskerud,true,DRAMMEN,Østlandet,DRAMMEN,3032
428,EP RØROS,428 EP RØROS,62.57427,11.37851,Trøndelag,true,RØROS,Trøndelag,RØROS,7374
486,EP SANDANE,486 EP SANDANE,61.776,6.2132,Vestland,true,GLOPPEN,Vestlandet,SANDANE,6823
368,EP SUNNDALSØRA,368 EP SUNNDALSØRA,62.67364,8.56382,Møre og Romsdal,true,SUNNDAL,Vestlandet,SUNNDALSØRA,6600
351,EP SAUDA,351 EP SAUDA,59.65072,6.35414,Rogaland,true,SAUDA,Vestlandet,SAUDA,4200
485,EP STRYN,485 EP STRYN,61.90259,6.71028,Vestland,true,STRYN,Vestlandet,STRYN,6783
575,EP GANDDAL,575 EP GANDDAL,58.82024,5.7123,Rogaland,true,SANDNES,Vestlandet,SANDNES,4323
277,EP HITRA,277 EP HITRA,63.60638,8.96961,Trøndelag,true,HITRA,Trøndelag,HITRA,7240
376,EP FLÅ,376 EP FLÅ,60.43021,9.46198,Buskerud,true,FLÅ,Østlandet,FLÅ,3539
377,EP OPPEGÅRD - utgått,377 EP OPPEGÅRD - utgått,"","","",true,"","","",""
004,IKKE BRUK,004 IKKE BRUK,"","","",true,"","","",""
335,EP MOLDE,335 EP MOLDE,62.73893,7.18001,Møre og Romsdal,true,MOLDE,Vestlandet,MOLDE,6415
379,EP NORDKJOSBOTN - utgått,379 EP NORDKJOSBOTN - utgått,"","","",true,"","","",""
380,EP FETSUND - utgått,380 EP FETSUND - utgått,"","","",true,"","","",""
381,EP RJUKAN - utgått,381 EP RJUKAN - utgått,"","","",true,"","","",""
382,EP JEVNAKER - utgått,382 EP JEVNAKER - utgått,"","","",true,"","","",""
389,EP SON - utgått,389 EP SON - utgått,59.52611,10.6893,Akershus,true,VESTBY,Østlandet,SON,1555
369,EP JUVIK,369 EP JUVIK,60.42702,5.19261,Vestland,true,ASKØY,Vestlandet,KLEPPESTØ,5300
378,EP SKOTTERUD,378 EP SKOTTERUD,59.98619,12.12206,Innlandet,true,EIDSKOG,Østlandet,SKOTTERUD,2230
490,EP VINSTRA,490 EP VINSTRA,61.59332,9.72765,Innlandet,true,NORD-FRON,Østlandet,VINSTRA,2640
061,EP BRØNNØYSUND,061 EP BRØNNØYSUND,65.49199,12.2413,Nordland,true,BRØNNØY,Nord-Norge,BRØNNØYSUND,8907
398,EP SKI,398 EP SKI,59.71336,10.83515,Akershus,true,NORDRE FOLLO,Østlandet,SKI,1400
399,EP KRÅKERØY,399 EP KRÅKERØY,59.21209,10.92863,Østfold,true,FREDRIKSTAD,Østlandet,KRÅKERØY,1671
359,EP JESSHEIM,359 EP JESSHEIM,60.14256,11.18056,Akershus,true,ULLENSAKER,Østlandet,JESSHEIM,2050
23550,EP Island,23550 EP Island,"","","",false,"","","",""
391,EP SPYDEBERG,391 EP SPYDEBERG,59.61917,11.07851,Østfold,true,INDRE ØSTFOLD,Østlandet,SPYDEBERG,1820
408,EP LØTEN,408 EP LØTEN,60.81983,11.34207,Innlandet,true,LØTEN,Østlandet,LØTEN,2340
370,EP SANDSLI,370 EP SANDSLI,60.30552,5.28194,Vestland,true,BERGEN,Vestlandet,SANDSLI,5253
420,EP FORUS,420 EP FORUS,58.89606,5.70186,Rogaland,true,STAVANGER,Vestlandet,STAVANGER,4033
062,EP HAMMERFEST,062 EP HAMMERFEST,70.67857,23.66983,Finnmark,true,HAMMERFEST,Nord-Norge,HAMMERFEST,9600
421,EP LØRENSKOG,421 EP LØRENSKOG,59.92723,10.95752,Akershus,true,LØRENSKOG,Østlandet,LØRENSKOG,1470
422,EP VINTERBRO,422 EP VINTERBRO,59.73886,10.76585,Akershus,true,ÅS,Østlandet,VINTERBRO,1407
409,EP SKREPPESTAD,409 EP SKREPPESTAD,59.04593,10.07235,Vestfold,true,LARVIK,Østlandet,LARVIK,3261
411,EP SAND,411 EP SAND,60.39259,11.54103,Innlandet,true,NORD-ODAL,Østlandet,SAGSTUA,2120
424,EP LONEVÅG,424 EP LONEVÅG,60.52619,5.49368,Vestland,true,OSTERØY,Vestlandet,LONEVÅG,5282
423,EP KIRKENÆR,423 EP KIRKENÆR,60.45675,12.05717,Innlandet,true,GRUE,Østlandet,KIRKENÆR,2260
009,EP MANDAL KUPPHUSET,009 EP MANDAL KUPPHUSET,58.02436,7.46635,Agder,true,LINDESNES,Sørlandet,MANDAL,4515
403,EP SKIPTVET,403 EP SKIPTVET,59.47257,11.16342,Østfold,true,SKIPTVET,Østlandet,SKIPTVET,1816
458,EP FURUSET,458 EP FURUSET,59.94216,10.89774,Oslo,true,OSLO,Østlandet,OSLO,1051
447,EP NEDENES,447 EP NEDENES,58.41842,8.70238,Agder,true,ARENDAL,Sørlandet,NEDENES,4823
063,EP MADLA,063 EP MADLA,58.95202,5.65727,Rogaland,true,STAVANGER,Vestlandet,HAFRSFJORD,4042
457,EP MORTENSRUD,457 EP MORTENSRUD,59.84883,10.83064,Oslo,true,OSLO,Østlandet,OSLO,1281
460,EP KIRKEBY,460 EP KIRKEBY,60.78383,10.69194,Innlandet,true,GJØVIK,Østlandet,GJØVIK,2815
459,EP TROMSDALEN,459 EP TROMSDALEN,69.63996,18.97086,Troms,true,TROMSØ,Nord-Norge,TROMSDALEN,9020
433,EP STOKMARKNES,433 EP STOKMARKNES,68.55797,14.94031,Nordland,true,HADSEL,Nord-Norge,STOKMARKNES,8450
461,EP OTTESTAD,461 EP OTTESTAD,60.77028,11.13187,Innlandet,true,STANGE,Østlandet,OTTESTAD,2312
462,EP STRØMSØ,462 EP STRØMSØ,59.73447,10.20669,Buskerud,true,DRAMMEN,Østlandet,DRAMMEN,3044
464,EP GISKE,464 EP GISKE,62.53268,6.12326,Møre og Romsdal,true,GISKE,Vestlandet,VALDERØYA,6050
407,EP ENEBAKK,407 EP ENEBAKK,59.72398,11.0503,Akershus,true,ENEBAKK,Østlandet,YTRE ENEBAKK,1914
410,EP PINDSLE,410 EP PINDSLE,59.14162,10.18001,Vestfold,true,SANDEFJORD,Østlandet,SANDEFJORD,3221
463,EP BEGBY,463 EP BEGBY,59.2083,10.99089,Østfold,true,FREDRIKSTAD,Østlandet,GAMLE FREDRIKSTAD,1639
418,EP STRUSSHAMN,418 EP STRUSSHAMN,60.40662,5.19456,Vestland,true,ASKØY,Vestlandet,STRUSSHAMN,5302
469,EP BODØ,469 EP BODØ,67.27698,14.4238,Nordland,true,BODØ,Nord-Norge,BODØ,8008
472,EP GRORUD,472 EP GRORUD,59.95948,10.88261,Oslo,true,OSLO,Østlandet,OSLO,0963
475,EP ÅGOTNES,475 EP ÅGOTNES,60.40344,5.00186,Vestland,true,ØYGARDEN,Vestlandet,ÅGOTNES,5363
476,EP STRANDA,476 EP STRANDA,62.30763,6.94808,Møre og Romsdal,true,STRANDA,Vestlandet,STRANDA,6200
477,EP JEVNAKER,477 EP JEVNAKER,60.22947,10.35494,Akershus,true,JEVNAKER,Østlandet,JEVNAKER,3520
473,EP ANDENES,473 EP ANDENES,69.31011,16.09885,Nordland,true,ANDØY,Nord-Norge,ANDENES,8480
425,EP RÅDE,425 EP RÅDE,59.35817,10.83582,Østfold,true,RÅDE,Østlandet,RÅDE,1640
404,EP GEILO,404 EP GEILO,60.53359,8.20665,Buskerud,true,HOL,Østlandet,GEILO,3580
481,EP STRØMMEN,481 EP STRØMMEN,59.94788,11.00712,Akershus,true,LILLESTRØM,Østlandet,STRØMMEN,2010
478,EP STOVNER,478 EP STOVNER,59.96143,10.92658,Oslo,true,OSLO,Østlandet,OSLO,0985
065,EP KRISTIANSUND - utgått,065 EP KRISTIANSUND - utgått,"","","",true,"","","",""
482,EP VORMSUND,482 EP VORMSUND,60.15059,11.40877,Akershus,true,NES,Østlandet,VORMSUND,2160
483,EP LAKSEVÅG,483 EP LAKSEVÅG,60.38951,5.28701,Vestland,true,BERGEN,Vestlandet,LAKSEVÅG,5163
480,EP RÆLINGEN,480 EP RÆLINGEN,59.94667,11.03122,Akershus,true,RÆLINGEN,Østlandet,RÆLINGEN,2005
432,EP GRASMYR,432 EP GRASMYR,59.03036,9.70408,Telemark,true,BAMBLE,Østlandet,STATHELLE,3960
479,EP GRAN,479 EP GRAN,60.35392,10.57601,Innlandet,true,GRAN,Østlandet,GRAN,2750
495,EP BREKSTAD,495 EP BREKSTAD,63.69235,9.66151,Trøndelag,true,ØRLAND,Trøndelag,BREKSTAD,7130
496,EP TASTA,496 EP TASTA,58.984,5.69108,Rogaland,true,STAVANGER,Vestlandet,STAVANGER,4027
500,EP KOKSTAD,500 EP KOKSTAD,60.29431,5.25325,Vestland,true,BERGEN,Vestlandet,KOKSTAD,5257
509,EP LANGEVÅG,509 EP LANGEVÅG,62.4381,6.23387,Møre og Romsdal,true,SULA,Vestlandet,LANGEVÅG,6030
508,EP DALE,508 EP DALE,61.36311,5.39812,Vestland,true,FJALER,Vestlandet,DALE I SUNNFJORD,6963
617,EP STJØRDAL,617 EP STJØRDAL,63.46775,10.92909,Trøndelag,true,STJØRDAL,Trøndelag,STJØRDAL,7503
493,EP ÅRDAL,493 EP ÅRDAL,61.31012,7.81507,Vestland,true,ÅRDAL,Vestlandet,ØVRE ÅRDAL,6884
578,EP REKNES,578 EP REKNES,62.73401,7.13944,Møre og Romsdal,true,MOLDE,Vestlandet,MOLDE,6415
571,EP RISØR,571 EP RISØR,58.71516,9.17672,Agder,true,RISØR,Sørlandet,RISØR,4950
494,EP GRONG,494 EP GRONG,64.46327,12.30489,Trøndelag,true,GRONG,Trøndelag,GRONG,7870
581,EP LILLEHAMMER NORD,581 EP LILLEHAMMER NORD,61.12904,10.44675,Innlandet,true,LILLEHAMMER,Østlandet,LILLEHAMMER,2619
492,EP ØRNES,492 EP ØRNES,66.85659,13.72455,Nordland,true,MELØY,Nord-Norge,ØRNES,8150
580,EP DIGERNES,580 EP DIGERNES,62.49156,6.60853,Møre og Romsdal,true,ÅLESUND,Vestlandet,SKODJE,6260
800,EP E-HANDEL,800 EP E-HANDEL,59.41536,10.67615,Østfold,true,MOSS,Østlandet,MOSS,1599
585,EP ØKSNEVAD,585 EP ØKSNEVAD,58.7855,5.70552,Rogaland,true,KLEPP,Vestlandet,KLEPP STASJON,4353
584,EP RYKKINN,584 EP RYKKINN,59.92403,10.48526,Akershus,true,BÆRUM,Østlandet,RYKKINN,1348
373,EP FAUSKE,373 EP FAUSKE,67.27133,15.39585,Nordland,true,FAUSKE,Nord-Norge,FAUSKE,8208
583,EP STOKKE,583 EP STOKKE,59.22141,10.30154,Vestfold,true,SANDEFJORD,Østlandet,STOKKE,3160
572,EP KJØRBEKK,572 EP KJØRBEKK,59.18374,9.60583,Telemark,true,SKIEN,Østlandet,SKIEN,3735
591,EP LURA,591 EP LURA,58.87353,5.72474,Rogaland,true,SANDNES,Vestlandet,SANDNES,4313
593,EP NANNESTAD,593 EP NANNESTAD,60.2204,11.01514,Akershus,true,NANNESTAD,Østlandet,NANNESTAD,2030
497,EP RJUKAN,497 EP RJUKAN,59.87709,8.58783,Telemark,true,TINN,Østlandet,RJUKAN,3660
604,EP GUNERIUS CITY,604 EP GUNERIUS CITY,59.91416,10.75291,Oslo,true,OSLO,Østlandet,OSLO,0184
596,EP VESTNES,596 EP VESTNES,62.6214,7.09363,Møre og Romsdal,true,VESTNES,Vestlandet,VESTNES,6390
597,EP FOSNAVÅG,597 EP FOSNAVÅG,62.32411,5.63875,Møre og Romsdal,true,HERØY (MØRE OG ROMSDAL),Vestlandet,FOSNAVÅG,6092
600,EP MERÅKER,600 EP MERÅKER,63.41685,11.73905,Trøndelag,true,MERÅKER,Trøndelag,MERÅKER,7530
602,EP ETNE,602 EP ETNE,59.66371,5.93238,Vestland,true,ETNE,Vestlandet,ETNE,5590
487,EP LYNGDAL,487 EP LYNGDAL,58.1379,7.07044,Agder,true,LYNGDAL,Sørlandet,LYNGDAL,4580
290,EP LANGNES,290 EP LANGNES,69.67542,18.92858,Troms,true,TROMSØ,Nord-Norge,TROMSØ,9015
607,EP TAU,607 EP TAU,59.06513,5.92179,Rogaland,true,STRAND,Vestlandet,TAU,4120
810,E-HANDEL POSTNORD,810 E-HANDEL POSTNORD,"","",Oslo,false,OSLO,Østlandet,OSLO,0668
611,EP LINDÅS,611 EP LINDÅS,60.73937,5.16066,Vestland,true,ALVER,Vestlandet,LINDÅS,5955
615,EP LØREN CITY,615 EP LØREN CITY,59.93141,10.79069,Oslo,true,OSLO,Østlandet,OSLO,0585
811,E-HANDEL HELTHJEM,811 E-HANDEL HELTHJEM,"","",Oslo,false,OSLO,Østlandet,OSLO,0180
444,EP KONGSBERG,444 EP KONGSBERG,"","",Buskerud,true,KONGSBERG,Østlandet,SKOLLENBORG,3619
612,EP AUSTEVOLL,612 EP AUSTEVOLL,60.09847,5.22488,Vestland,true,AUSTEVOLL,Vestlandet,STOREBØ,5392
618,EP XHIBITION CITY,618 EP XHIBITION CITY,60.39298,5.32626,Vestland,true,BERGEN,Vestlandet,BERGEN,5014
619,EP JÅTTÅ,619 EP JÅTTÅ,58.91426,5.71905,Rogaland,true,STAVANGER,Vestlandet,STAVANGER,4020
616,EP SELBU,616 EP SELBU,63.22211,11.03491,Trøndelag,true,SELBU,Trøndelag,SELBU,7580
448,EP SOLHEIMSVIKEN - utgått,448 EP SOLHEIMSVIKEN - utgått,60.3759,5.33839,Vestland,true,BERGEN,Vestlandet,BERGEN,5054
621,EP FRØYA,621 EP FRØYA,63.7045,8.8189,Trøndelag,true,FRØYA,Trøndelag,HAMARVIK,7263
626,EP LAGUNEN,626 EP LAGUNEN,60.29555,5.32952,Vestland,true,BERGEN,Vestlandet,RÅDAL,5239
623,EP FJELLHAMAR,623 EP FJELLHAMAR,59.94107,10.97964,Akershus,true,LØRENSKOG,Østlandet,FJELLHAMAR,1463
622,EP SETERMOEN,622 EP SETERMOEN,68.87701,18.35714,Troms,true,BARDU,Nord-Norge,BARDU,9360
624,EP ENSJØ,624 EP ENSJØ,59.91456,10.78817,Oslo,true,OSLO,Østlandet,OSLO,0661
625,EP NITTEDAL,625 EP NITTEDAL,60.05084,10.8839,Akershus,true,NITTEDAL,Østlandet,NITTEDAL,1482
628,EP FROLAND,628 EP FROLAND,58.49697,8.645,Agder,true,FROLAND,Sørlandet,FROLAND,4820
629,EP GRENSEN CITY,629 EP GRENSEN CITY,59.91394,10.74319,Oslo,true,OSLO,Østlandet,OSLO,0159
998,EP 998 52POS,998 EP 998 52POS,"","","",true,"","","",""
630,EP DOMBÅS,630 EP DOMBÅS,62.07429,9.12724,Innlandet,true,DOVRE,Østlandet,DOMBÅS,2660
431,EP MIDTUN,431 EP MIDTUN,60.32143,5.36485,Vestland,true,BERGEN,Vestlandet,NESTTUN,5224
631,EP HAMAR,631 EP HAMAR,60.79949,11.11649,Innlandet,true,HAMAR,Østlandet,HAMAR,2321
633,EP TRIADEN,633 EP TRIADEN,59.91861,10.95353,Akershus,true,LØRENSKOG,Østlandet,LØRENSKOG,1461
634,EP CC DRAMMEN,634 EP CC DRAMMEN,59.74123,10.22278,Buskerud,true,DRAMMEN,Østlandet,DRAMMEN,3012
635,EP ROGNAN,635 EP ROGNAN,67.10153,15.41147,Nordland,true,SALTDAL,Nord-Norge,ROGNAN,8250
641,EP GULSKOGEN,641 EP GULSKOGEN,59.74253,10.15797,Buskerud,true,DRAMMEN,Østlandet,DRAMMEN,3048
637,EP ASKER,637 EP ASKER,"","",Akershus,true,ASKER,Østlandet,ASKER,1386
639,EP GRIM,639 EP GRIM,58.14833,7.97886,Agder,true,KRISTIANSAND,Sørlandet,KRISTIANSAND S,4616
638,EP FRITZØE BRYGGE,638 EP FRITZØE BRYGGE,"","",Vestfold,true,LARVIK,Østlandet,LARVIK,3264
644,EP BEKKESTUA,644 EP BEKKESTUA,"","",Akershus,true,BÆRUM,Østlandet,BEKKESTUA,1357
646,EP HOLMLIA CITY,646 EP HOLMLIA CITY,"","",Oslo,true,OSLO,Østlandet,OSLO,1255
075,EP HAMAR - utgått,075 EP HAMAR - utgått,"","",Innlandet,true,HAMAR,Østlandet,HAMAR,2317
076,EP KRAGERØ,076 EP KRAGERØ,58.87311,9.36891,Telemark,true,KRAGERØ,Østlandet,KRAGERØ,3772
077,EP NOTODDEN,077 EP NOTODDEN,59.5661,9.21626,Telemark,true,NOTODDEN,Østlandet,NOTODDEN,3676
079,EP SANDNESSJØEN,079 EP SANDNESSJØEN,66.01729,12.64243,Nordland,true,ALSTAHAUG,Nord-Norge,SANDNESSJØEN,8800
416,EP STAKKEVOLL,416 EP STAKKEVOLL,69.66598,18.9708,Troms,true,TROMSØ,Nord-Norge,TROMSØ,9010
083,EP MOSS - utgått,083 EP MOSS - utgått,"","",Østfold,true,MOSS,Østlandet,MOSS,1521
579,EP FØRDE,579 EP FØRDE,61.45671,5.84409,Vestland,true,SUNNFJORD,Vestlandet,FØRDE,6800
605,EP SORTLAND,605 EP SORTLAND,68.7199,15.40116,Nordland,true,SORTLAND,Nord-Norge,SORTLAND,8400
089,EP KNARVIK,089 EP KNARVIK,60.5481,5.28661,Vestland,true,ALVER,Vestlandet,ISDALSTØ,5914
375,EP NAMSOS,375 EP NAMSOS,64.47467,11.50992,Trøndelag,true,NAMSOS,Trøndelag,NAMSOS,7800
439,EP BØ,439 EP BØ,59.41535,9.05834,Telemark,true,MIDT-TELEMARK,Østlandet,BØ I TELEMARK,3802
429,EP FYLLINGSDALEN,429 EP FYLLINGSDALEN,60.3509,5.27783,Vestland,true,BERGEN,Vestlandet,FYLLINGSDALEN,5147
440,EP SANDEFJORD,440 EP SANDEFJORD,59.13971,10.23865,Vestfold,true,SANDEFJORD,Østlandet,SANDEFJORD,3229
441,EP NANSET,441 EP NANSET,59.08085,10.0626,Vestfold,true,LARVIK,Østlandet,LARVIK,3255
388,EP ASKIM,388 EP ASKIM,59.58522,11.16639,Østfold,true,INDRE ØSTFOLD,Østlandet,ASKIM,1830
337,EP NORÅS FANA - utgått,337 EP NORÅS FANA - utgått,60.3087,5.32568,Vestland,true,BERGEN,Vestlandet,RÅDAL,5235
113,EP TILLER - utgått,113 EP TILLER - utgått,"","",Trøndelag,true,TRONDHEIM,Trøndelag,TILLER,7075
116,EP STEINKJER - utgått,116 EP STEINKJER - utgått,"","",Trøndelag,true,STEINKJER,Trøndelag,STEINKJER,7729
020,EP LEKNES,020 EP LEKNES,68.14733,13.60656,Nordland,true,VESTVÅGØY,Nord-Norge,LEKNES,8370
117,EP EIKER,117 EP EIKER,59.76127,9.90383,Buskerud,true,ØVRE EIKER,Østlandet,HOKKSUND,3300
598,EP STORD,598 EP STORD,59.76431,5.46072,Vestland,true,STORD,Vestlandet,STORD,5416
442,EP PORSGRUNN,442 EP PORSGRUNN,59.14058,9.63716,Telemark,true,PORSGRUNN,Østlandet,PORSGRUNN,3920
498,EP ØRSTA,498 EP ØRSTA,62.2025,6.11815,Møre og Romsdal,true,ØRSTA,Vestlandet,ØRSTA,6150
339,EP EIDSVÅG,339 EP EIDSVÅG,62.77611,8.0628,Møre og Romsdal,true,MOLDE,Vestlandet,EIDSVÅG I ROMSDAL,6460
345,EP BRYNE,345 EP BRYNE,58.735,5.65268,Rogaland,true,TIME,Vestlandet,BRYNE,4340
435,EP MOSJØEN,435 EP MOSJØEN,65.84149,13.19153,Nordland,true,VEFSN,Nord-Norge,MOSJØEN,8663
135,EP ODDA,135 EP ODDA,60.06968,6.55186,Vestland,true,ULLENSVANG,Vestlandet,ODDA,5750
449,EP SARTOR STORSENTER,449 EP SARTOR STORSENTER,60.3585,5.12407,Vestland,true,ØYGARDEN,Vestlandet,STRAUME,5353
620,EP LENA,620 EP LENA,60.67529,10.81152,Innlandet,true,ØSTRE TOTEN,Østlandet,LENA,2850
372,EP BODØ - utgått,372 EP BODØ - utgått,67.27818,14.41907,Nordland,true,BODØ,Nord-Norge,BODØ,8008
395,EP HORTEN,395 EP HORTEN,59.40765,10.4845,Vestfold,true,HORTEN,Østlandet,HORTEN,3187
438,EP LIERTOPPEN,438 EP LIERTOPPEN,59.81129,10.30585,Buskerud,true,LIER,Østlandet,LIERSKOGEN,3421
412,EP SOGNDAL,412 EP SOGNDAL,61.19165,7.22033,Vestland,true,SOGNDAL,Vestlandet,KAUPANGER,6854
589,EP HARSTAD,589 EP HARSTAD,68.79191,16.54183,Troms,true,HARSTAD,Nord-Norge,HARSTAD,9406
163,EP VERDAL - utgått,163 EP VERDAL - utgått,"","",Trøndelag,true,VERDAL,Trøndelag,VERDAL,7650
443,EP LANGRØNNINGEN,443 EP LANGRØNNINGEN,58.97256,9.52422,Telemark,true,BAMBLE,Østlandet,STATHELLE,3967
430,EP FINNSNES,430 EP FINNSNES,69.2294,17.98739,Troms,true,SENJA,Nord-Norge,FINNSNES,9300
397,EP OPPDAL,397 EP OPPDAL,62.59396,9.69372,Trøndelag,true,OPPDAL,Trøndelag,OPPDAL,7340
171,EP AVALDNES - utgått,171 EP AVALDNES - utgått,"","",Rogaland,true,KARMØY,Vestlandet,AVALDSNES,4262
178,EP VENNESLA - utgått,178 EP VENNESLA - utgått,"","",Agder,true,VENNESLA,Sørlandet,VENNESLA,4700
499,EP ULSTEINVIK,499 EP ULSTEINVIK,62.33976,5.85497,Møre og Romsdal,true,ULSTEIN,Vestlandet,ULSTEINVIK,6065
613,EP VÅGSBYGD,613 EP VÅGSBYGD,58.12493,7.96338,Agder,true,KRISTIANSAND,Sørlandet,KRISTIANSAND S,4621
010,010 Testbutikk,010 010 Testbutikk,"","",Østfold,false,FREDRIKSTAD,Østlandet,FREDRIKSTAD,1601
642,EP JØRPELAND/STRAND,642 EP JØRPELAND/STRAND,59.02063,6.03994,Rogaland,true,STRAND,Vestlandet,JØRPELAND,4100
470,EP BØMLO,470 EP BØMLO,59.79601,5.18529,Vestland,true,BØMLO,Vestlandet,BREMNES,5430
209,EP FREDRIKSTAD,209 EP FREDRIKSTAD,59.24484,10.98454,Østfold,true,FREDRIKSTAD,Østlandet,ROLVSØY,1661
636,EP OTTA,636 EP OTTA,61.77119,9.54336,Innlandet,true,SEL,Østlandet,OTTA,2670
384,EP NÆRBØ,384 EP NÆRBØ,58.66486,5.63669,Rogaland,true,HÅ,Vestlandet,NÆRBØ,4365
419,EP SVOLVÆR,419 EP SVOLVÆR,68.23618,14.56416,Nordland,true,VÅGAN,Nord-Norge,SVOLVÆR,8300
213,EP LIAMYRANE - utgått,213 EP LIAMYRANE - utgått,"","",Vestland,true,BERGEN,Vestlandet,NYBORG,5132
413,EP MYSEN,413 EP MYSEN,59.55181,11.34179,Østfold,true,INDRE ØSTFOLD,Østlandet,MYSEN,1850
610,EP SØRKJOSEN,610 EP SØRKJOSEN,69.78637,20.95096,Troms,true,NORDREISA,Nord-Norge,SØRKJOSEN,9152
216,EP RANDABERG,216 EP RANDABERG,58.99532,5.63761,Rogaland,true,RANDABERG,Vestlandet,RANDABERG,4070
218,EP SØRLANDSPARKEN - utgått,218 EP SØRLANDSPARKEN - utgått,"","",Agder,true,KRISTIANSAND,Sørlandet,KRISTIANSAND S,4636
436,EP LILLESAND,436 EP LILLESAND,58.26122,8.39377,Agder,true,LILLESAND,Sørlandet,LILLESAND,4790
595,EP HERKULES,595 EP HERKULES,59.1951,9.59715,Telemark,true,SKIEN,Østlandet,SKIEN,3730
221,EP STØPERIGATEN STAVANGER,221 EP STØPERIGATEN STAVANGER,58.97004,5.75388,Rogaland,true,STAVANGER,Vestlandet,STAVANGER,4014
222,EP KRISTIANSAND - utgått,222 EP KRISTIANSAND - utgått,58.15754,8.02848,Agder,true,KRISTIANSAND,Sørlandet,KRISTIANSAND S,4632
223,EP SANDNES,223 EP SANDNES,58.84829,5.73966,Rogaland,true,SANDNES,Vestlandet,SANDNES,4306
224,EP LIERSTRANDA,224 EP LIERSTRANDA,59.74989,10.24926,Buskerud,true,LIER,Østlandet,LIERSTRANDA,3414
225,EP ÅSSIDEN PLUSS,225 EP ÅSSIDEN PLUSS,59.75335,10.13038,Buskerud,true,DRAMMEN,Østlandet,DRAMMEN,3027
226,EP VIKERSUND,226 EP VIKERSUND,59.96525,9.99348,Buskerud,true,MODUM,Østlandet,VIKERSUND,3370
227,EP VESTBY,227 EP VESTBY,59.60766,10.74308,Akershus,true,VESTBY,Østlandet,VESTBY,1540
228,EP LILLEHAMMER STRANDPARKEN,228 EP LILLEHAMMER STRANDPARKEN,61.11459,10.45268,Innlandet,true,LILLEHAMMER,Østlandet,LILLEHAMMER,2609
229,EP BRUMUNDDAL,229 EP BRUMUNDDAL,60.88548,10.94124,Innlandet,true,RINGSAKER,Østlandet,BRUMUNDDAL,2380
645,EP MANDAL,645 EP MANDAL,58.02436,7.46635,Agder,true,LINDESNES,Sørlandet,MANDAL,4515
230,EP FLISA,230 EP FLISA,60.61307,12.00806,Innlandet,true,ÅSNES,Østlandet,FLISA,2270
231,EP ÅRNES,231 EP ÅRNES,60.11865,11.46198,Akershus,true,NES,Østlandet,ÅRNES,2151
233,EP RAGLAMYR PLUSS,233 EP RAGLAMYR PLUSS,59.3974,5.33471,Rogaland,true,HAUGESUND,Vestlandet,HAUGESUND,5536
234,EP KROKSTAD - utgått,234 EP KROKSTAD - utgått,"","",Buskerud,true,DRAMMEN,Østlandet,KROKSTADELVA,3055
236,EP VOLLEBEKK,236 EP VOLLEBEKK,59.93647,10.82697,Oslo,true,OSLO,Østlandet,OSLO,0598
237,EP PRINSDAL,237 EP PRINSDAL,59.83328,10.80876,Akershus,true,NORDRE FOLLO,Østlandet,KOLBOTN,1410
238,EP BRYN,238 EP BRYN,59.91206,10.82484,Oslo,true,OSLO,Østlandet,OSLO,0666
239,EP HALDEN,239 EP HALDEN,59.1216,11.3834,Østfold,true,HALDEN,Østlandet,HALDEN,1771
240,EP STRØMMEN - utgått,240 EP STRØMMEN - utgått,59.94569,11.0067,Akershus,true,LILLESTRØM,Østlandet,STRØMMEN,2010
242,EP MOELV,242 EP MOELV,60.92999,10.7008,Innlandet,true,RINGSAKER,Østlandet,MOELV,2390
434,EP MO I RANA,434 EP MO I RANA,66.30412,14.13258,Nordland,true,RANA,Nord-Norge,MO I RANA,8624
243,EP KONGSVINGER,243 EP KONGSVINGER,60.19289,12.00053,Innlandet,true,KONGSVINGER,Østlandet,KONGSVINGER,2212
244,EP HØNEFOSS,244 EP HØNEFOSS,60.1459,10.25245,Buskerud,true,RINGERIKE,Østlandet,HØNEFOSS,3511
245,EP RAKKESTAD,245 EP RAKKESTAD,59.42608,11.34239,Østfold,true,RAKKESTAD,Østlandet,RAKKESTAD,1890
246,EP EIDSVOLL,246 EP EIDSVOLL,60.33131,11.26554,Akershus,true,EIDSVOLL,Østlandet,EIDSVOLL,2080
247,EP STANGE,247 EP STANGE,60.72157,11.19727,Innlandet,true,STANGE,Østlandet,STANGE,2335
248,EP SLEMMESTAD,248 EP SLEMMESTAD,59.78577,10.4893,Akershus,true,ASKER,Østlandet,SLEMMESTAD,3470
249,EP ELVERUM,249 EP ELVERUM,60.87635,11.5482,Innlandet,true,ELVERUM,Østlandet,ELVERUM,2413
250,EP SARPSBORG,250 EP SARPSBORG,59.28679,11.08066,Østfold,true,SARPSBORG,Østlandet,SARPSBORG,1711
252,EP KLØFTA,252 EP KLØFTA,60.07258,11.13591,Akershus,true,ULLENSAKER,Østlandet,KLØFTA,2040
253,EP SØRUMSAND,253 EP SØRUMSAND,59.98665,11.24252,Akershus,true,LILLESTRØM,Østlandet,SØRUMSAND,1920
594,EP FALKUM,594 EP FALKUM,59.21306,9.58649,Telemark,true,SKIEN,Østlandet,SKIEN,3723
254,EP LAMBERTSETER,254 EP LAMBERTSETER,59.87489,10.80969,Oslo,true,OSLO,Østlandet,OSLO,1153
255,EP LINDEBERG,255 EP LINDEBERG,59.93563,10.88696,Oslo,true,OSLO,Østlandet,OSLO,1068
256,EP MAURA - utgått,256 EP MAURA - utgått,60.25869,11.03307,Akershus,true,NANNESTAD,Østlandet,MAURA,2032
257,EP ØSTERÅS - utgått,257 EP ØSTERÅS - utgått,59.94371,10.60742,Akershus,true,BÆRUM,Østlandet,ØSTERÅS,1361
258,EP NORDHEIMSUND - utgått,258 EP NORDHEIMSUND - utgått,"","",Vestland,true,KVAM,Vestlandet,NORHEIMSUND,5600
334,EP NØTTERØY,334 EP NØTTERØY,59.26389,10.39329,Vestfold,true,FÆRDER,Østlandet,NØTTERØY,3128
396,EP ELNESVÅGEN,396 EP ELNESVÅGEN,62.85382,7.16111,Møre og Romsdal,true,HUSTADVIKA,Vestlandet,ELNESVÅGEN,6440
261,EP LEVANGER - utgått,261 EP LEVANGER - utgått,"","",Trøndelag,true,LEVANGER,Trøndelag,LEVANGER,7600
262,EP HAUGENSTUA,262 EP HAUGENSTUA,59.95272,10.90826,Oslo,true,OSLO,Østlandet,OSLO,0977
263,EP TVEDESTRAND - utgått,263 EP TVEDESTRAND - utgått,"","",Agder,true,TVEDESTRAND,Sørlandet,TVEDESTRAND,4900
415,EP GOL,415 EP GOL,60.70505,8.95334,Buskerud,true,GOL,Østlandet,GOL,3550
264,EP RÅHOLT,264 EP RÅHOLT,60.28593,11.17086,Akershus,true,EIDSVOLL,Østlandet,RÅHOLT,2070
267,EP SOLA,267 EP SOLA,58.88427,5.6527,Rogaland,true,SOLA,Vestlandet,SOLA,4050
627,EP LEIRA,627 EP LEIRA,60.97112,9.28952,Innlandet,true,NORD-AURDAL,Østlandet,LEIRA I VALDRES,2920
587,EP RAUFOSS,587 EP RAUFOSS,60.72538,10.61266,Innlandet,true,VESTRE TOTEN,Østlandet,RAUFOSS,2830
271,EP VESTKANTEN,271 EP VESTKANTEN,60.36311,5.23496,Vestland,true,BERGEN,Vestlandet,LODDEFJORD,5171
272,EP ÅS,272 EP ÅS,59.66468,10.79082,Akershus,true,ÅS,Østlandet,ÅS,1430
273,EP TRYSIL,273 EP TRYSIL,61.29977,12.26551,Innlandet,true,TRYSIL,Østlandet,TRYSIL,2420
278,EP STORHAMAR - utgått,278 EP STORHAMAR - utgått,"","",Innlandet,true,HAMAR,Østlandet,HAMAR,2316
279,EP ISEVEIEN,279 EP ISEVEIEN,59.26897,11.15912,Østfold,true,SARPSBORG,Østlandet,BORGENHAUGEN,1738
383,EP LILLESTRØM,383 EP LILLESTRØM,59.94802,11.07249,Akershus,true,LILLESTRØM,Østlandet,LILLESTRØM,2004
393,EP SEM,393 EP SEM,59.28271,10.33154,Vestfold,true,TØNSBERG,Østlandet,SEM,3170
801,MARIEBERG,801 MARIEBERG,"","","",true,"","","",""
802,ULRICHEHAMN,802 ULRICHEHAMN,"","",Vestland,true,ØYGARDEN,Vestlandet,TJELDSTØ,5333
803,GISLAVED,803 GISLAVED,"","","",true,"","","",""
804,TRESTAD,804 TRESTAD,"","","",true,"","","",""
805,KNALLELAND,805 KNALLELAND,"","","",true,"","","",""
806,INGELSTA,806 INGELSTA,"","",Møre og Romsdal,true,ÅLESUND,Vestlandet,ÅLESUND,6022
807,TORNBY,807 TORNBY,"","",Vestland,true,BERGEN,Vestlandet,BERGEN,5827
808,HÂLLA,808 HÂLLA,"","","",true,"","","",""
012,EP EGERSUND,012 EP EGERSUND,58.44094,6.00725,Rogaland,true,EIGERSUND,Vestlandet,EGERSUND,4373
666666,Testbutikk 666666,666666 Testbutikk 666666,59.21663,10.96311,Østfold,false,FREDRIKSTAD,Østlandet,SELLEBAKK,1653
446,EP SELLEBAKK,446 EP SELLEBAKK,59.22604,10.99514,Østfold,true,FREDRIKSTAD,Østlandet,SELLEBAKK,1654
576,EP BOGAFJELL,576 EP BOGAFJELL,58.82104,5.75326,Rogaland,true,SANDNES,Vestlandet,SANDNES,4324
643,EP ÅNDALSNES,643 EP ÅNDALSNES,62.56119,7.67855,Møre og Romsdal,true,RAUMA,Vestlandet,ÅNDALSNES,6300
274,EP VADSØ,274 EP VADSØ,70.07999,29.71737,Finnmark,true,VADSØ,Nord-Norge,VADSØ,9800
286,EP ÅSANE PLUSS,286 EP ÅSANE PLUSS,60.4691,5.33926,Vestland,true,BERGEN,Vestlandet,NYBORG,5132
374,EP HUNSTAD,374 EP HUNSTAD,67.28111,14.54527,Nordland,true,BODØ,Nord-Norge,BODØ,8022
467,EP KVINESDAL,467 EP KVINESDAL,58.32051,6.96346,Agder,true,KVINESDAL,Sørlandet,KVINESDAL,4480
426,EP KOLVEREID,426 EP KOLVEREID,64.86468,11.59831,Trøndelag,true,NÆRØYSUND,Trøndelag,KOLVEREID,7970
301,EP VENNESLA,301 EP VENNESLA,58.27173,7.96945,Agder,true,VENNESLA,Sørlandet,VENNESLA,4700
040,EP ARENDAL - utgått,040 EP ARENDAL - utgått,"","",Agder,true,ARENDAL,Sørlandet,ARENDAL,4836
292,EP HAMAR -utgått,292 EP HAMAR -utgått,"","",Innlandet,true,HAMAR,Østlandet,HAMAR,2317
293,EP STORHAMAR,293 EP STORHAMAR,60.80421,11.04435,Innlandet,true,HAMAR,Østlandet,HAMAR,2316
471,EP LEVANGER,471 EP LEVANGER,63.73383,11.28266,Trøndelag,true,LEVANGER,Trøndelag,LEVANGER,7606
295,EP MOSS PLUSS,295 EP MOSS PLUSS,59.41536,10.67615,Østfold,true,MOSS,Østlandet,MOSS,1521
296,EP SKARNES,296 EP SKARNES,60.24921,11.67615,Innlandet,true,SØR-ODAL,Østlandet,SKARNES,2100
291,EP TVEDESTRAND,291 EP TVEDESTRAND,58.6244,8.9233,Agder,true,TVEDESTRAND,Sørlandet,TVEDESTRAND,4900
283,EP SØRLANDSPARKEN PLUSS,283 EP SØRLANDSPARKEN PLUSS,58.1794,8.12644,Agder,true,KRISTIANSAND,Sørlandet,KRISTIANSAND S,4636
414,EP RINGEBU,414 EP RINGEBU,61.52992,10.1471,Innlandet,true,RINGEBU,Østlandet,RINGEBU,2630
280,EP RENA,280 EP RENA,61.13277,11.3698,Innlandet,true,ÅMOT,Østlandet,RENA,2450
608,EP FLEKKEFJORD,608 EP FLEKKEFJORD,58.29298,6.66359,Agder,true,FLEKKEFJORD,Sørlandet,FLEKKEFJORD,4400
474,EP LUND,474 EP LUND,58.15311,8.02572,Agder,true,KRISTIANSAND,Sørlandet,KRISTIANSAND S,4632
297,EP SVINESUNDPARKEN,297 EP SVINESUNDPARKEN,59.1288,11.27364,Østfold,true,HALDEN,Østlandet,BERG I ØSTFOLD,1789
011,011 Testbutikk Web,011 011 Testbutikk Web,"","",Østfold,true,FREDRIKSTAD,Østlandet,ROLVSØY,1661
632,EP HOLMESTRAND,632 EP HOLMESTRAND,59.47355,10.31723,Vestfold,true,HOLMESTRAND,Østlandet,HOLMESTRAND,3080
427,EP SANDE I VESTFOLD,427 EP SANDE I VESTFOLD,59.58413,10.21006,Vestfold,true,HOLMESTRAND,Østlandet,SANDE I VESTFOLD,3070
304,EP FARSUND,304 EP FARSUND,58.09809,6.77089,Agder,true,FARSUND,Sørlandet,FARSUND,4550
305,EP LAKSELV,305 EP LAKSELV,70.05203,24.97146,Finnmark,true,PORSANGER PORSÁNGU PORSANKI,Nord-Norge,LAKSELV,9700
307,EP TILLER PLUSS,307 EP TILLER PLUSS,63.35679,10.3735,Trøndelag,true,TRONDHEIM,Trøndelag,TILLER,7075
306,EP MÅLØY,306 EP MÅLØY,61.92162,5.15445,Vestland,true,KINN,Vestlandet,DEKNEPOLLEN,6718
299,EP BJØRKELANGEN,299 EP BJØRKELANGEN,59.89093,11.5601,Akershus,true,AURSKOG-HØLAND,Østlandet,BJØRKELANGEN,1940
394,EP GJØVIK,394 EP GJØVIK,60.78047,10.69246,Innlandet,true,GJØVIK,Østlandet,GJØVIK,2818
311,EP BROKELANDSHEIA,311 EP BROKELANDSHEIA,58.82414,9.07415,Agder,true,GJERSTAD,Sørlandet,SUNDEBRU,4993
316,EP KIRKENES,316 EP KIRKENES,69.72569,30.06846,Finnmark,true,SØR-VARANGER,Nord-Norge,KIRKENES,9900
308,EP KRISTIANSUND,308 EP KRISTIANSUND,63.10967,7.80007,Møre og Romsdal,true,KRISTIANSUND,Vestlandet,KRISTIANSUND N,6517
309,EP STEINKJER,309 EP STEINKJER,64.01125,11.49161,Trøndelag,true,STEINKJER,Trøndelag,STEINKJER,7714
310,EP VERDAL,310 EP VERDAL,63.79444,11.48063,Trøndelag,true,VERDAL,Trøndelag,VERDAL,7650
315,EP NORHEIMSUND,315 EP NORHEIMSUND,60.37217,6.13744,Vestland,true,KVAM,Vestlandet,NORHEIMSUND,5600
387,EP SKEDSMO,387 EP SKEDSMO,60.00512,11.03322,Akershus,true,LILLESTRØM,Østlandet,SKEDSMOKORSET,2020
317,EP BILLINGSTAD,317 EP BILLINGSTAD,59.87702,10.50069,Akershus,true,ASKER,Østlandet,BILLINGSTAD,1396
588,EP NARVIK,588 EP NARVIK,68.43628,17.41494,Nordland,true,NARVIK,Nord-Norge,NARVIK,8516
047,EP HUSNES,047 EP HUSNES,59.85881,5.75396,Vestland,true,KVINNHERAD,Vestlandet,HUSNES,5460
069,EP ÅLESUND - utgått,069 EP ÅLESUND - utgått,"","",Møre og Romsdal,true,ÅLESUND,Vestlandet,ÅLESUND,6003
071,EP TROMDSDALEN - utgått,071 EP TROMDSDALEN - utgått,"","",Troms,true,TROMSØ,Nord-Norge,TROMSØ,9015
085,EP Brua - utgått,085 EP Brua - utgått,"","",Innlandet,true,NORD-AURDAL,Østlandet,FAGERNES,2900
180,EP SLEPENDEN - utgått,180 EP SLEPENDEN - utgått,"","",Akershus,true,ASKER,Østlandet,BILLINGSTAD,1396
232,EP Lillestrøm - utgått,232 EP Lillestrøm - utgått,"","",Akershus,true,LILLESTRØM,Østlandet,LILLESTRØM,2000
235,EP Kvadrat - utgått,235 EP Kvadrat - utgått,"","",Rogaland,true,SANDNES,Vestlandet,SANDNES,4313
590,EP DOKKA,590 EP DOKKA,60.83624,10.06889,Innlandet,true,NORDRE LAND,Østlandet,DOKKA,2870
241,EP SANDAKERVEIEN - utgått,241 EP SANDAKERVEIEN - utgått,"","",Oslo,true,OSLO,Østlandet,OSLO,0473
251,EP SOLA - utgått,251 EP SOLA - utgått,"","",Rogaland,true,SOLA,Vestlandet,SOLA,4050
320,EP LADE,320 EP LADE,63.44017,10.46253,Trøndelag,true,TRONDHEIM,Trøndelag,TRONDHEIM,7041
319,EP ØLENSVÅG - utgått,319 EP ØLENSVÅG - utgått,"","",Rogaland,true,VINDAFJORD,Vestlandet,ØLENSVÅG,5582
312,EP ØLENSVÅG,312 EP ØLENSVÅG,59.60504,5.75061,Rogaland,true,VINDAFJORD,Vestlandet,ØLENSVÅG,5582
574,EP ÅLGÅRD,574 EP ÅLGÅRD,58.76628,5.86231,Rogaland,true,GJESDAL,Vestlandet,ÅLGÅRD,4330
417,EP VOLDA,417 EP VOLDA,62.14049,6.09105,Møre og Romsdal,true,VOLDA,Vestlandet,VOLDA,6100
466,EP BRENNÅSEN,466 EP BRENNÅSEN,58.13867,7.8559,Agder,true,KRISTIANSAND,Sørlandet,BRENNÅSEN,4647
451,LETTKAUP EHF. FISKISLØD,451 LETTKAUP EHF. FISKISLØD,"","","",true,"","","",101
452,LETTKAUP EHF. SELFOSS,452 LETTKAUP EHF. SELFOSS,"","","",true,"","","",800
453,LETTKAUP EHF. DALEVEGUR,453 LETTKAUP EHF. DALEVEGUR,"","","",true,"","","",200
455,LETTKAUP EHF. AKUREYRI,455 LETTKAUP EHF. AKUREYRI,"","","",true,"","","",600
454,LETTKAUP EHF. HAFNAFJORDUR,454 LETTKAUP EHF. HAFNAFJORDUR,"","","",true,"","","",220
456,LETTKAUP EHF. STEKKJABREKKUR,456 LETTKAUP EHF. STEKKJABREKKUR,"","","",true,"","","",113
0001,NY1,0001 NY1,"","","",true,"","","",""
00002,NY2,00002 NY2,"","","",true,"","","",""
054,EP ÅSANE - utgått,054 EP ÅSANE - utgått,"","",Vestland,true,BERGEN,Vestlandet,NYBORG,5132
0002,EP BRANDBU - utgått,0002 EP BRANDBU - utgått,"","","",true,"","","",""
0003,NY3,0003 NY3,"","","",true,"","","",""
0004,NY4,0004 NY4,"","","",true,"","","",""
300,EP REVETAL,300 EP REVETAL,59.3694,10.26458,Vestfold,true,TØNSBERG,Østlandet,REVETAL,3174
323,EP BRANDBU,323 EP BRANDBU,60.41727,10.51537,Innlandet,true,GRAN,Østlandet,BRANDBU,2760
49800,EP BUTIKKDRIFT A/S,49800 EP BUTIKKDRIFT A/S,59.21742,10.96402,Østfold,false,FREDRIKSTAD,Østlandet,FREDRIKSTAD,1604
220,EP MOLDE - utgått,220 EP MOLDE - utgått,"","",Møre og Romsdal,true,MOLDE,Vestlandet,MOLDE,6415
386,EP MJØNDALEN,386 EP MJØNDALEN,59.74887,10.02697,Buskerud,true,DRAMMEN,Østlandet,MJØNDALEN,3050
324,EP SANDVIKA,324 EP SANDVIKA,59.88717,10.51848,Akershus,true,BÆRUM,Østlandet,SANDVIKA,1337
055,EP KIRKENES - utgått,055 EP KIRKENES - utgått,"","",Finnmark,true,SØR-VARANGER,Nord-Norge,KIRKENES,9900
325,EP KYRKSÆTERØRA,325 EP KYRKSÆTERØRA,63.29347,9.08651,Trøndelag,true,HEIM,Trøndelag,KYRKSÆTERØRA,7200
326,EP ØREBEKK,326 EP ØREBEKK,59.23222,10.90533,Østfold,true,FREDRIKSTAD,Østlandet,GRESSVIK,1624
327,EP KRØGENES,327 EP KRØGENES,58.47355,8.81403,Agder,true,ARENDAL,Sørlandet,ARENDAL,4841
390,EP FLATÅSEN,390 EP FLATÅSEN,63.37395,10.34572,Trøndelag,true,TRONDHEIM,Trøndelag,FLATÅSEN,7079
329,EP HOMMELVIK,329 EP HOMMELVIK,63.41524,10.80752,Trøndelag,true,MALVIK,Trøndelag,HOMMELVIK,7550
330,EP SYKKYLVEN,330 EP SYKKYLVEN,62.38001,6.57343,Møre og Romsdal,true,SYKKYLVEN,Vestlandet,SYKKYLVEN,6230
332,EP ÅLESUND PLUSS,332 EP ÅLESUND PLUSS,62.47067,6.35431,Møre og Romsdal,true,ÅLESUND,Vestlandet,ÅLESUND,6018
333,EP STØREN,333 EP STØREN,63.04166,10.28826,Trøndelag,true,MIDTRE GAULDAL,Trøndelag,STØREN,7290
331,EP ÅL - utgått,331 EP ÅL - utgått,"","","",true,"","","",""
056,EP OS,056 EP OS,60.20315,5.45643,Vestland,true,BJØRNAFJORDEN,Vestlandet,OS,5210
777777,Logistikk,777777 Logistikk,59.21663,10.96311,"",false,"","","",""
340,EP LOM,340 EP LOM,61.83923,8.57833,Innlandet,true,LOM,Østlandet,LOM,2686
346,EP GAUSDAL,346 EP GAUSDAL,61.22638,10.22247,Innlandet,true,GAUSDAL,Østlandet,ØSTRE GAUSDAL,2651
999,EP 999 TEST BUTIKK,999 EP 999 TEST BUTIKK,59.22604,10.99514,Østfold,true,FREDRIKSTAD,Østlandet,SELLEBAKK,1653
353,EP GRINI PLUSS,353 EP GRINI PLUSS,59.94561,10.59776,Akershus,true,BÆRUM,Østlandet,ØSTERÅS,1361
350,EP ROA,350 EP ROA,60.28642,10.62679,Akershus,true,LUNNER,Østlandet,ROA,2740
057,EP ALTA,057 EP ALTA,69.9762,23.3243,Finnmark,true,ALTA,Nord-Norge,ALTA,9515
347,EP VATNE,347 EP VATNE,62.54451,6.59145,Møre og Romsdal,true,HARAM,Vestlandet,VATNE,6265
577,EP KLEPP,577 EP KLEPP,58.77801,5.62843,Rogaland,true,KLEPP,Vestlandet,KLEPPE,4352
349,EP RISSA,349 EP RISSA,63.58407,9.95663,Trøndelag,true,INDRE FOSEN,Trøndelag,RISSA,7100
360,EP AVERØY,360 EP AVERØY,63.05172,7.63204,Møre og Romsdal,true,AVERØY,Vestlandet,AVERØY,6530
058,EP KARMØY,058 EP KARMØY,59.29148,5.28929,Rogaland,true,KARMØY,Vestlandet,KOPERVIK,4250
603,EP VOSS,603 EP VOSS,60.6279,6.42603,Vestland,true,VOSS,Vestlandet,VOSS,5705
185,EP LARVIK - utgått,185 EP LARVIK - utgått,"","",Vestfold,true,LARVIK,Østlandet,LARVIK,3256
606,EP KONGSBERG SØLVPARKEN,606 EP KONGSBERG SØLVPARKEN,59.669,9.65425,Buskerud,true,KONGSBERG,Østlandet,KONGSBERG,3602
343,EP MOA - utgått,343 EP MOA - utgått,62.46675,6.34698,Møre og Romsdal,true,ÅLESUND,Vestlandet,ÅLESUND,6018
489,EP ORKANGER,489 EP ORKANGER,63.30598,9.8386,Trøndelag,true,ORKLAND,Trøndelag,ORKANGER,7300
192,EP FLORØ,192 EP FLORØ,61.60052,5.0474,Vestland,true,KINN,Vestlandet,FLORØ,6900
437,EP GRIMSTAD,437 EP GRIMSTAD,58.34273,8.55371,Agder,true,GRIMSTAD,Sørlandet,GRIMSTAD,4886
592,EP BARDUFOSS,592 EP BARDUFOSS,69.09414,18.59034,Troms,true,MÅLSELV,Nord-Norge,BARDUFOSS,9325
609,EP MELHUS,609 EP MELHUS,63.28613,10.28416,Trøndelag,true,MELHUS,Trøndelag,MELHUS,7224
573,EP ÅSEN,573 EP ÅSEN,58.94323,5.72884,Rogaland,true,STAVANGER,Vestlandet,STAVANGER,4017
344,EP STOA,344 EP STOA,58.46502,8.71261,Agder,true,ARENDAL,Sørlandet,ARENDAL,4848
614,EP KILEN TØNSBERG,614 EP KILEN TØNSBERG,59.27379,10.42929,Vestfold,true,TØNSBERG,Østlandet,TØNSBERG,3117
199,EP DRØBAK,199 EP DRØBAK,59.67376,10.65719,Akershus,true,FROGN,Østlandet,DRØBAK,1448
200,EP SKARNES - utgått,200 EP SKARNES - utgått,"","",Innlandet,true,SØR-ODAL,Østlandet,SKARNES,2100
506,EP BJUGN,506 EP BJUGN,63.76612,9.80779,Trøndelag,true,ØRLAND,Trøndelag,BJUGN,7160
465,EP SURNADAL,465 EP SURNADAL,62.97002,8.71288,Møre og Romsdal,true,SURNADAL,Vestlandet,SURNADAL,6650
484,EP NORDFJORDEID,484 EP NORDFJORDEID,61.90967,6.00291,Vestland,true,STAD,Vestlandet,NORDFJORDEID,6770
488,EP KVALA,488 EP KVALA,59.43764,5.26845,Rogaland,true,HAUGESUND,Vestlandet,HAUGESUND,5516
445,EP SELJORD,445 EP SELJORD,59.48082,8.63031,Telemark,true,SELJORD,Østlandet,SELJORD,3840
599,EP TYNSET,599 EP TYNSET,62.27695,10.78023,Innlandet,true,TYNSET,Østlandet,TYNSET,2500
850,New Store,850 New Store,"","","","","","","",""
137,EP LENA,137 EP LENA,"","",Innlandet,"","",Østlandet,"",""
042,EP Holmestrand,042 EP Holmestrand,"","",Vestfold,"","",Østlandet,"",""
269,EP Leira,269 EP Leira,"","",Innlandet,"","",Østlandet,"",""
210,EP OTTA,210 EP OTTA,"","",Innlandet,"","",Østlandet,"",""
355,EP ÅNDALSNES,355 EP ÅNDALSNES,"","",Møre og Romsdal,"","",Vestlandet,"",""
025,EP JØRPELAND/STRAND,025 EP JØRPELAND/STRAND,"","",Rogaland,"","",Vestlandet,"",""
029,EP MANDAL,029 EP MANDAL,"","",Agder,"","",Sørlandet,"",""
